{
  "type": "FeatureCollection",
  "features": [
    {
      "type": "Feature",
      "properties": {
        "norad_id": 66456,
        "name": "STARLINK-35643",
        "group": "last-30-days",
        "lat": 9.406479026683584,
        "lon": 139.05765929477354,
        "alt_km": 379.3572712454361,
        "timestamp": "2025-12-02T21:34:00.042008+00:00",
        "meta_object_name": "STARLINK-35643",
        "meta_object_id": "2025-262A",
        "meta_epoch": "2025-12-02T12:00:05.998752",
        "meta_mean_motion": 15.64301457,
        "meta_eccentricity": 0.0001599,
        "meta_inclination": 42.9991,
        "meta_ra_of_asc_node": 131.1935,
        "meta_arg_of_pericenter": 262.7639,
        "meta_mean_anomaly": 25.4136,
        "meta_ephemeris_type": 0,
        "meta_classification_type": "U",
        "meta_norad_cat_id": 66456,
        "meta_element_set_no": 999,
        "meta_rev_at_epoch": 399,
        "meta_bstar": -0.024633,
        "meta_mean_motion_dot": -0.02111605,
        "meta_mean_motion_ddot": 0,
        "tle_line1": "1 66456U 25262A   25336.50006943 -.02111605  00000+0 -24633-1 0  9996",
        "tle_line2": "2 66456  42.9991 131.1935 0001599 262.7639  25.4136 15.64301457  3993"
      },
      "geometry": {
        "type": "Point",
        "coordinates": [
          139.05765929477354,
          9.406479026683584
        ]
      }
    },
    {
      "type": "Feature",
      "properties": {
        "norad_id": 66457,
        "name": "STARLINK-35466",
        "group": "last-30-days",
        "lat": 11.966300616997216,
        "lon": 141.95387845418773,
        "alt_km": 379.00877397583463,
        "timestamp": "2025-12-02T21:34:00.042018+00:00",
        "meta_object_name": "STARLINK-35466",
        "meta_object_id": "2025-262B",
        "meta_epoch": "2025-12-02T12:00:05.998752",
        "meta_mean_motion": 15.64298719,
        "meta_eccentricity": 0.0001555,
        "meta_inclination": 42.9991,
        "meta_ra_of_asc_node": 131.1836,
        "meta_arg_of_pericenter": 264.1044,
        "meta_mean_anomaly": 27.9074,
        "meta_ephemeris_type": 0,
        "meta_classification_type": "U",
        "meta_norad_cat_id": 66457,
        "meta_element_set_no": 999,
        "meta_rev_at_epoch": 399,
        "meta_bstar": -0.024573,
        "meta_mean_motion_dot": -0.02106936,
        "meta_mean_motion_ddot": 0,
        "tle_line1": "1 66457U 25262B   25336.50006943 -.02106936  00000+0 -24573-1 0  9991",
        "tle_line2": "2 66457  42.9991 131.1836 0001555 264.1044  27.9074 15.64298719  3996"
      },
      "geometry": {
        "type": "Point",
        "coordinates": [
          141.95387845418773,
          11.966300616997216
        ]
      }
    },
    {
      "type": "Feature",
      "properties": {
        "norad_id": 66458,
        "name": "STARLINK-35684",
        "group": "last-30-days",
        "lat": 10.68975568444761,
        "lon": 140.49916492526575,
        "alt_km": 379.225693236458,
        "timestamp": "2025-12-02T21:34:00.042028+00:00",
        "meta_object_name": "STARLINK-35684",
        "meta_object_id": "2025-262C",
        "meta_epoch": "2025-12-02T12:00:05.998752",
        "meta_mean_motion": 15.64297802,
        "meta_eccentricity": 0.0001623,
        "meta_inclination": 42.9992,
        "meta_ra_of_asc_node": 131.1881,
        "meta_arg_of_pericenter": 262.2251,
        "meta_mean_anomaly": 27.8704,
        "meta_ephemeris_type": 0,
        "meta_classification_type": "U",
        "meta_norad_cat_id": 66458,
        "meta_element_set_no": 999,
        "meta_rev_at_epoch": 399,
        "meta_bstar": -0.024565,
        "meta_mean_motion_dot": -0.02106313,
        "meta_mean_motion_ddot": 0,
        "tle_line1": "1 66458U 25262C   25336.50006943 -.02106313  00000+0 -24565-1 0  9992",
        "tle_line2": "2 66458  42.9992 131.1881 0001623 262.2251  27.8704 15.64297802  3994"
      },
      "geometry": {
        "type": "Point",
        "coordinates": [
          140.49916492526575,
          10.68975568444761
        ]
      }
    },
    {
      "type": "Feature",
      "properties": {
        "norad_id": 66459,
        "name": "STARLINK-35449",
        "group": "last-30-days",
        "lat": 13.23618773041348,
        "lon": 143.42292707698374,
        "alt_km": 378.93379628450475,
        "timestamp": "2025-12-02T21:34:00.042042+00:00",
        "meta_object_name": "STARLINK-35449",
        "meta_object_id": "2025-262D",
        "meta_epoch": "2025-12-02T12:00:05.998752",
        "meta_mean_motion": 15.64299177,
        "meta_eccentricity": 0.0001648,
        "meta_inclination": 42.9992,
        "meta_ra_of_asc_node": 131.1786,
        "meta_arg_of_pericenter": 262.2967,
        "meta_mean_anomaly": 31.6328,
        "meta_ephemeris_type": 0,
        "meta_classification_type": "U",
        "meta_norad_cat_id": 66459,
        "meta_element_set_no": 999,
        "meta_rev_at_epoch": 399,
        "meta_bstar": -0.024592,
        "meta_mean_motion_dot": -0.02108472,
        "meta_mean_motion_ddot": 0,
        "tle_line1": "1 66459U 25262D   25336.50006943 -.02108472  00000+0 -24592-1 0  9991",
        "tle_line2": "2 66459  42.9992 131.1786 0001648 262.2967  31.6328 15.64299177  3992"
      },
      "geometry": {
        "type": "Point",
        "coordinates": [
          143.42292707698374,
          13.23618773041348
        ]
      }
    },
    {
      "type": "Feature",
      "properties": {
        "norad_id": 66460,
        "name": "STARLINK-35424",
        "group": "last-30-days",
        "lat": 14.496788258208527,
        "lon": 144.90708703710428,
        "alt_km": 378.6878388347668,
        "timestamp": "2025-12-02T21:34:00.042054+00:00",
        "meta_object_name": "STARLINK-35424",
        "meta_object_id": "2025-262E",
        "meta_epoch": "2025-12-02T12:00:05.998752",
        "meta_mean_motion": 15.64297719,
        "meta_eccentricity": 0.0001583,
        "meta_inclination": 42.9991,
        "meta_ra_of_asc_node": 131.1741,
        "meta_arg_of_pericenter": 265.4311,
        "meta_mean_anomaly": 30.4177,
        "meta_ephemeris_type": 0,
        "meta_classification_type": "U",
        "meta_norad_cat_id": 66460,
        "meta_element_set_no": 999,
        "meta_rev_at_epoch": 399,
        "meta_bstar": -0.024597,
        "meta_mean_motion_dot": -0.02108642,
        "meta_mean_motion_ddot": 0,
        "tle_line1": "1 66460U 25262E   25336.50006943 -.02108642  00000+0 -24597-1 0  9997",
        "tle_line2": "2 66460  42.9991 131.1741 0001583 265.4311  30.4177 15.64297719  3999"
      },
      "geometry": {
        "type": "Point",
        "coordinates": [
          144.90708703710428,
          14.496788258208527
        ]
      }
    },
    {
      "type": "Feature",
      "properties": {
        "norad_id": 66461,
        "name": "STARLINK-35132",
        "group": "last-30-days",
        "lat": 15.7475148982295,
        "lon": 146.4075475378519,
        "alt_km": 378.5390840607606,
        "timestamp": "2025-12-02T21:34:00.042064+00:00",
        "meta_object_name": "STARLINK-35132",
        "meta_object_id": "2025-262F",
        "meta_epoch": "2025-12-02T12:00:05.998752",
        "meta_mean_motion": 15.64292495,
        "meta_eccentricity": 0.0001612,
        "meta_inclination": 42.999,
        "meta_ra_of_asc_node": 131.1694,
        "meta_arg_of_pericenter": 265.4075,
        "meta_mean_anomaly": 32.3592,
        "meta_ephemeris_type": 0,
        "meta_classification_type": "U",
        "meta_norad_cat_id": 66461,
        "meta_element_set_no": 999,
        "meta_rev_at_epoch": 399,
        "meta_bstar": -0.024499,
        "meta_mean_motion_dot": -0.02100969,
        "meta_mean_motion_ddot": 0,
        "tle_line1": "1 66461U 25262F   25336.50006943 -.02100969  00000+0 -24499-1 0  9993",
        "tle_line2": "2 66461  42.9990 131.1694 0001612 265.4075  32.3592 15.64292495  3994"
      },
      "geometry": {
        "type": "Point",
        "coordinates": [
          146.4075475378519,
          15.7475148982295
        ]
      }
    },
    {
      "type": "Feature",
      "properties": {
        "norad_id": 66462,
        "name": "STARLINK-35499",
        "group": "last-30-days",
        "lat": 16.987899822138708,
        "lon": 147.92598682041358,
        "alt_km": 378.3667163605651,
        "timestamp": "2025-12-02T21:34:00.042074+00:00",
        "meta_object_name": "STARLINK-35499",
        "meta_object_id": "2025-262G",
        "meta_epoch": "2025-12-02T12:00:05.998752",
        "meta_mean_motion": 15.64293821,
        "meta_eccentricity": 0.0001527,
        "meta_inclination": 42.9991,
        "meta_ra_of_asc_node": 131.1641,
        "meta_arg_of_pericenter": 264.8923,
        "meta_mean_anomaly": 34.79,
        "meta_ephemeris_type": 0,
        "meta_classification_type": "U",
        "meta_norad_cat_id": 66462,
        "meta_element_set_no": 999,
        "meta_rev_at_epoch": 399,
        "meta_bstar": -0.024503,
        "meta_mean_motion_dot": -0.02101284,
        "meta_mean_motion_ddot": 0,
        "tle_line1": "1 66462U 25262G   25336.50006943 -.02101284  00000+0 -24503-1 0  9991",
        "tle_line2": "2 66462  42.9991 131.1641 0001527 264.8923  34.7900 15.64293821  3991"
      },
      "geometry": {
        "type": "Point",
        "coordinates": [
          147.92598682041358,
          16.987899822138708
        ]
      }
    }
  ]
}